KUIPER-00152            
1 65772U 25217L   25352.33335648 -.01223610  00000+0 -44011-1 0  9993
2 65772  51.8758  36.9941 0003516  23.3488 221.2713 15.30831813  3406
KUIPER-00153            
1 65773U 25217M   25352.18701567  .00009107  00000+0  55086-3 0  9990
2 65773  51.8786  46.8052 0013149  39.6146 320.5788 15.11253788 12767
KUIPER-00155            
1 65774U 25217N   25352.15928162  .00026205  00000+0  70575-3 0  9998
2 65774  51.8661  38.5125 0008878  40.0071 320.1569 15.37628766 12870
KUIPER-00156            
1 65775U 25217P   25352.14753132  .00037826  00000+0  95774-3 0  9990
2 65775  51.8727  37.7441 0003169  29.5834 330.5332 15.39370815 12888
KUIPER-00158            
1 65776U 25217Q   25352.33335648 -.00032199  00000+0 -38511-2 0  9995
2 65776  51.8988  45.5282 0005410  41.2856   8.9254 14.83669020  5107
KUIPER-00163            
1 65777U 25217R   25352.33335648 -.00048652  00000+0 -62903-2 0  9999
2 65777  51.8980  47.7717 0001675  62.1126 137.2538 14.80648950  4935
KUIPER-00165            
1 65778U 25217S   25352.33335648 -.01201157  00000+0 -69575-1 0  9993
2 65778  51.8843  38.8509 0005017  42.7366 311.9913 15.14791265  2884
KUIPER-00166            
1 65779U 25217T   25352.29330148  .00030808  00000+0  78877-3 0  9996
2 65779  51.8716  37.2135 0003664   3.1501 356.9509 15.39129602 12901
