<?xml version="1.0" encoding="UTF-8"?>
<ndm xmlns:xsi="http://www.w3.org/2001/XMLSchema-instance" xsi:noNamespaceSchemaLocation="https://sanaregistry.org/r/ndmxml_unqualified/ndmxml-2.0.0-master-2.0.xsd">
<omm id="CCSDS_OMM_VERS" version="2.0">
<header><CREATION_DATE/><ORIGINATOR/></header><body><segment><metadata><OBJECT_NAME>KUIPER-00152</OBJECT_NAME><OBJECT_ID>2025-217L</OBJECT_ID><CENTER_NAME>EARTH</CENTER_NAME><REF_FRAME>TEME</REF_FRAME><TIME_SYSTEM>UTC</TIME_SYSTEM><MEAN_ELEMENT_THEORY>SGP4</MEAN_ELEMENT_THEORY></metadata><data><meanElements><EPOCH>2025-12-18T08:00:01.999872</EPOCH><MEAN_MOTION>15.30831813</MEAN_MOTION><ECCENTRICITY>.00035161</ECCENTRICITY><INCLINATION>51.8758</INCLINATION><RA_OF_ASC_NODE>36.9941</RA_OF_ASC_NODE><ARG_OF_PERICENTER>23.3488</ARG_OF_PERICENTER><MEAN_ANOMALY>221.2713</MEAN_ANOMALY></meanElements><tleParameters><EPHEMERIS_TYPE>0</EPHEMERIS_TYPE><CLASSIFICATION_TYPE>U</CLASSIFICATION_TYPE><NORAD_CAT_ID>65772</NORAD_CAT_ID><ELEMENT_SET_NO>999</ELEMENT_SET_NO><REV_AT_EPOCH>340</REV_AT_EPOCH><BSTAR>-.44011294E-1</BSTAR><MEAN_MOTION_DOT>-.122361E-1</MEAN_MOTION_DOT><MEAN_MOTION_DDOT>0</MEAN_MOTION_DDOT></tleParameters></data></segment></body></omm>
<omm id="CCSDS_OMM_VERS" version="2.0">
<header><CREATION_DATE/><ORIGINATOR/></header><body><segment><metadata><OBJECT_NAME>KUIPER-00153</OBJECT_NAME><OBJECT_ID>2025-217M</OBJECT_ID><CENTER_NAME>EARTH</CENTER_NAME><REF_FRAME>TEME</REF_FRAME><TIME_SYSTEM>UTC</TIME_SYSTEM><MEAN_ELEMENT_THEORY>SGP4</MEAN_ELEMENT_THEORY></metadata><data><meanElements><EPOCH>2025-12-18T04:29:18.153888</EPOCH><MEAN_MOTION>15.11253788</MEAN_MOTION><ECCENTRICITY>.0013149</ECCENTRICITY><INCLINATION>51.8786</INCLINATION><RA_OF_ASC_NODE>46.8052</RA_OF_ASC_NODE><ARG_OF_PERICENTER>39.6146</ARG_OF_PERICENTER><MEAN_ANOMALY>320.5788</MEAN_ANOMALY></meanElements><tleParameters><EPHEMERIS_TYPE>0</EPHEMERIS_TYPE><CLASSIFICATION_TYPE>U</CLASSIFICATION_TYPE><NORAD_CAT_ID>65773</NORAD_CAT_ID><ELEMENT_SET_NO>999</ELEMENT_SET_NO><REV_AT_EPOCH>1276</REV_AT_EPOCH><BSTAR>.55085993E-3</BSTAR><MEAN_MOTION_DOT>.9107E-4</MEAN_MOTION_DOT><MEAN_MOTION_DDOT>0</MEAN_MOTION_DDOT></tleParameters></data></segment></body></omm>
<omm id="CCSDS_OMM_VERS" version="2.0">
<header><CREATION_DATE/><ORIGINATOR/></header><body><segment><metadata><OBJECT_NAME>KUIPER-00155</OBJECT_NAME><OBJECT_ID>2025-217N</OBJECT_ID><CENTER_NAME>EARTH</CENTER_NAME><REF_FRAME>TEME</REF_FRAME><TIME_SYSTEM>UTC</TIME_SYSTEM><MEAN_ELEMENT_THEORY>SGP4</MEAN_ELEMENT_THEORY></metadata><data><meanElements><EPOCH>2025-12-18T03:49:21.931968</EPOCH><MEAN_MOTION>15.37628766</MEAN_MOTION><ECCENTRICITY>.00088789</ECCENTRICITY><INCLINATION>51.8661</INCLINATION><RA_OF_ASC_NODE>38.5125</RA_OF_ASC_NODE><ARG_OF_PERICENTER>40.0071</ARG_OF_PERICENTER><MEAN_ANOMALY>320.1569</MEAN_ANOMALY></meanElements><tleParameters><EPHEMERIS_TYPE>0</EPHEMERIS_TYPE><CLASSIFICATION_TYPE>U</CLASSIFICATION_TYPE><NORAD_CAT_ID>65774</NORAD_CAT_ID><ELEMENT_SET_NO>999</ELEMENT_SET_NO><REV_AT_EPOCH>1287</REV_AT_EPOCH><BSTAR>.70575399E-3</BSTAR><MEAN_MOTION_DOT>.26205E-3</MEAN_MOTION_DOT><MEAN_MOTION_DDOT>0</MEAN_MOTION_DDOT></tleParameters></data></segment></body></omm>
<omm id="CCSDS_OMM_VERS" version="2.0">
<header><CREATION_DATE/><ORIGINATOR/></header><body><segment><metadata><OBJECT_NAME>KUIPER-00156</OBJECT_NAME><OBJECT_ID>2025-217P</OBJECT_ID><CENTER_NAME>EARTH</CENTER_NAME><REF_FRAME>TEME</REF_FRAME><TIME_SYSTEM>UTC</TIME_SYSTEM><MEAN_ELEMENT_THEORY>SGP4</MEAN_ELEMENT_THEORY></metadata><data><meanElements><EPOCH>2025-12-18T03:32:26.706048</EPOCH><MEAN_MOTION>15.39370815</MEAN_MOTION><ECCENTRICITY>.00031691</ECCENTRICITY><INCLINATION>51.8727</INCLINATION><RA_OF_ASC_NODE>37.7441</RA_OF_ASC_NODE><ARG_OF_PERICENTER>29.5834</ARG_OF_PERICENTER><MEAN_ANOMALY>330.5332</MEAN_ANOMALY></meanElements><tleParameters><EPHEMERIS_TYPE>0</EPHEMERIS_TYPE><CLASSIFICATION_TYPE>U</CLASSIFICATION_TYPE><NORAD_CAT_ID>65775</NORAD_CAT_ID><ELEMENT_SET_NO>999</ELEMENT_SET_NO><REV_AT_EPOCH>1288</REV_AT_EPOCH><BSTAR>.95773532E-3</BSTAR><MEAN_MOTION_DOT>.37826E-3</MEAN_MOTION_DOT><MEAN_MOTION_DDOT>0</MEAN_MOTION_DDOT></tleParameters></data></segment></body></omm>
<omm id="CCSDS_OMM_VERS" version="2.0">
<header><CREATION_DATE/><ORIGINATOR/></header><body><segment><metadata><OBJECT_NAME>KUIPER-00158</OBJECT_NAME><OBJECT_ID>2025-217Q</OBJECT_ID><CENTER_NAME>EARTH</CENTER_NAME><REF_FRAME>TEME</REF_FRAME><TIME_SYSTEM>UTC</TIME_SYSTEM><MEAN_ELEMENT_THEORY>SGP4</MEAN_ELEMENT_THEORY></metadata><data><meanElements><EPOCH>2025-12-18T08:00:01.999872</EPOCH><MEAN_MOTION>14.83669020</MEAN_MOTION><ECCENTRICITY>.00054107</ECCENTRICITY><INCLINATION>51.8988</INCLINATION><RA_OF_ASC_NODE>45.5282</RA_OF_ASC_NODE><ARG_OF_PERICENTER>41.2856</ARG_OF_PERICENTER><MEAN_ANOMALY>8.9254</MEAN_ANOMALY></meanElements><tleParameters><EPHEMERIS_TYPE>0</EPHEMERIS_TYPE><CLASSIFICATION_TYPE>U</CLASSIFICATION_TYPE><NORAD_CAT_ID>65776</NORAD_CAT_ID><ELEMENT_SET_NO>999</ELEMENT_SET_NO><REV_AT_EPOCH>510</REV_AT_EPOCH><BSTAR>-.38511167E-2</BSTAR><MEAN_MOTION_DOT>-.32199E-3</MEAN_MOTION_DOT><MEAN_MOTION_DDOT>0</MEAN_MOTION_DDOT></tleParameters></data></segment></body></omm>
<omm id="CCSDS_OMM_VERS" version="2.0">
<header><CREATION_DATE/><ORIGINATOR/></header><body><segment><metadata><OBJECT_NAME>KUIPER-00163</OBJECT_NAME><OBJECT_ID>2025-217R</OBJECT_ID><CENTER_NAME>EARTH</CENTER_NAME><REF_FRAME>TEME</REF_FRAME><TIME_SYSTEM>UTC</TIME_SYSTEM><MEAN_ELEMENT_THEORY>SGP4</MEAN_ELEMENT_THEORY></metadata><data><meanElements><EPOCH>2025-12-18T08:00:01.999872</EPOCH><MEAN_MOTION>14.80648950</MEAN_MOTION><ECCENTRICITY>.00016759</ECCENTRICITY><INCLINATION>51.8980</INCLINATION><RA_OF_ASC_NODE>47.7717</RA_OF_ASC_NODE><ARG_OF_PERICENTER>62.1126</ARG_OF_PERICENTER><MEAN_ANOMALY>137.2538</MEAN_ANOMALY></meanElements><tleParameters><EPHEMERIS_TYPE>0</EPHEMERIS_TYPE><CLASSIFICATION_TYPE>U</CLASSIFICATION_TYPE><NORAD_CAT_ID>65777</NORAD_CAT_ID><ELEMENT_SET_NO>999</ELEMENT_SET_NO><REV_AT_EPOCH>493</REV_AT_EPOCH><BSTAR>-.62903489E-2</BSTAR><MEAN_MOTION_DOT>-.48652E-3</MEAN_MOTION_DOT><MEAN_MOTION_DDOT>0</MEAN_MOTION_DDOT></tleParameters></data></segment></body></omm>
<omm id="CCSDS_OMM_VERS" version="2.0">
<header><CREATION_DATE/><ORIGINATOR/></header><body><segment><metadata><OBJECT_NAME>KUIPER-00165</OBJECT_NAME><OBJECT_ID>2025-217S</OBJECT_ID><CENTER_NAME>EARTH</CENTER_NAME><REF_FRAME>TEME</REF_FRAME><TIME_SYSTEM>UTC</TIME_SYSTEM><MEAN_ELEMENT_THEORY>SGP4</MEAN_ELEMENT_THEORY></metadata><data><meanElements><EPOCH>2025-12-18T08:00:01.999872</EPOCH><MEAN_MOTION>15.14791265</MEAN_MOTION><ECCENTRICITY>.00050177</ECCENTRICITY><INCLINATION>51.8843</INCLINATION><RA_OF_ASC_NODE>38.8509</RA_OF_ASC_NODE><ARG_OF_PERICENTER>42.7366</ARG_OF_PERICENTER><MEAN_ANOMALY>311.9913</MEAN_ANOMALY></meanElements><tleParameters><EPHEMERIS_TYPE>0</EPHEMERIS_TYPE><CLASSIFICATION_TYPE>U</CLASSIFICATION_TYPE><NORAD_CAT_ID>65778</NORAD_CAT_ID><ELEMENT_SET_NO>999</ELEMENT_SET_NO><REV_AT_EPOCH>288</REV_AT_EPOCH><BSTAR>-.69575096E-1</BSTAR><MEAN_MOTION_DOT>-.1201157E-1</MEAN_MOTION_DOT><MEAN_MOTION_DDOT>0</MEAN_MOTION_DDOT></tleParameters></data></segment></body></omm>
<omm id="CCSDS_OMM_VERS" version="2.0">
<header><CREATION_DATE/><ORIGINATOR/></header><body><segment><metadata><OBJECT_NAME>KUIPER-00166</OBJECT_NAME><OBJECT_ID>2025-217T</OBJECT_ID><CENTER_NAME>EARTH</CENTER_NAME><REF_FRAME>TEME</REF_FRAME><TIME_SYSTEM>UTC</TIME_SYSTEM><MEAN_ELEMENT_THEORY>SGP4</MEAN_ELEMENT_THEORY></metadata><data><meanElements><EPOCH>2025-12-18T07:02:21.247872</EPOCH><MEAN_MOTION>15.39129602</MEAN_MOTION><ECCENTRICITY>.00036647</ECCENTRICITY><INCLINATION>51.8716</INCLINATION><RA_OF_ASC_NODE>37.2135</RA_OF_ASC_NODE><ARG_OF_PERICENTER>3.1501</ARG_OF_PERICENTER><MEAN_ANOMALY>356.9509</MEAN_ANOMALY></meanElements><tleParameters><EPHEMERIS_TYPE>0</EPHEMERIS_TYPE><CLASSIFICATION_TYPE>U</CLASSIFICATION_TYPE><NORAD_CAT_ID>65779</NORAD_CAT_ID><ELEMENT_SET_NO>999</ELEMENT_SET_NO><REV_AT_EPOCH>1290</REV_AT_EPOCH><BSTAR>.78876781E-3</BSTAR><MEAN_MOTION_DOT>.30808E-3</MEAN_MOTION_DOT><MEAN_MOTION_DDOT>0</MEAN_MOTION_DDOT></tleParameters></data></segment></body></omm>

</ndm>
